LANDSAT 9               
1 49260U 21088A   23306.80648408  .00000688  00000+0  16260-3 0  9991
2 49260  98.2162  14.9433 0001066  96.9622 263.1698 14.57132628111571
